{"type": "FeatureCollection", "features": [ {"type": "Feature", "properties": {"norad_id": 39019, "name": "PLEIADES 1B", "group": "resource", "lat": -40.47089653306367, "lon": -113.89195531790624, "alt_km": 704.9168521579759, "timestamp": "2025-12-26T17:24:54.374779+00:00", "meta": {"OBJECT_NAME": "PLEIADES 1B", "OBJECT_ID": "2012-068A", "EPOCH": "2025-12-26T06:31:37.246368", "MEAN_MOTION": 14.58565258, "ECCENTRICITY": 0.0001136, "INCLINATION": 98.1775, "RA_OF_ASC_NODE": 72.7089, "ARG_OF_PERICENTER": 86.575, "MEAN_ANOMALY": 273.5579, "EPHEMERIS_TYPE": 0, "CLASSIFICATION_TYPE": "U", "NORAD_CAT_ID": 39019, "ELEMENT_SET_NO": 999, "REV_AT_EPOCH": 69564, "BSTAR": 0.00011171698, "MEAN_MOTION_DOT": 4.74e-06, "MEAN_MOTION_DDOT": 0}, "tle": {"line1": "1 39019U 12068A   25360.27195887  .00000474  00000+0  11172-3 0  9991", "line2": "2 39019  98.1775  72.7089 0001136  86.5750 273.5579 14.58565258695643"}}, "geometry": {"type": "Point", "coordinates": [-113.89195531790624, -40.47089653306367]}}, {"type": "Feature", "properties": {"norad_id": 39030, "name": "GOKTURK 2", "group": "resource", "lat": -17.35808702168343, "lon": 19.270613384508113, "alt_km": 649.1894877958457, "timestamp": "2025-12-26T17:24:54.374791+00:00", "meta": {"OBJECT_NAME": "GOKTURK 2", "OBJECT_ID": "2012-073A", "EPOCH": "2025-12-26T06:45:23.840352", "MEAN_MOTION": 14.75310241, "ECCENTRICITY": 0.00014749, "INCLINATION": 97.6886, "RA_OF_ASC_NODE": 201.2687, "ARG_OF_PERICENTER": 106.039, "MEAN_ANOMALY": 254.0983, "EPHEMERIS_TYPE": 0, "CLASSIFICATION_TYPE": "U", "NORAD_CAT_ID": 39030, "ELEMENT_SET_NO": 999, "REV_AT_EPOCH": 69901, "BSTAR": 0.00013684208, "MEAN_MOTION_DOT": 8.8e-06, "MEAN_MOTION_DDOT": 0}, "tle": {"line1": "1 39030U 12073A   25360.28152593  .00000880  00000+0  13684-3 0  9999", "line2": "2 39030  97.6886 201.2687 0001474 106.0390 254.0983 14.75310241699016"}}, "geometry": {"type": "Point", "coordinates": [19.270613384508113, -17.35808702168343]}}, {"type": "Feature", "properties": {"norad_id": 39084, "name": "LANDSAT 8", "group": "resource", "lat": -41.332398123332865, "lon": 75.88261968003823, "alt_km": 709.583930386364, "timestamp": "2025-12-26T17:24:54.374801+00:00", "meta": {"OBJECT_NAME": "LANDSAT 8", "OBJECT_ID": "2013-008A", "EPOCH": "2025-12-26T06:04:13.437984", "MEAN_MOTION": 14.57115874, "ECCENTRICITY": 0.00010484, "INCLINATION": 98.2055, "RA_OF_ASC_NODE": 68.1259, "ARG_OF_PERICENTER": 93.5566, "MEAN_ANOMALY": 266.5752, "EPHEMERIS_TYPE": 0, "CLASSIFICATION_TYPE": "U", "NORAD_CAT_ID": 39084, "ELEMENT_SET_NO": 999, "REV_AT_EPOCH": 67271, "BSTAR": 0.00010638914, "MEAN_MOTION_DOT": 4.34e-06, "MEAN_MOTION_DDOT": 0}, "tle": {"line1": "1 39084U 13008A   25360.25293331  .00000434  00000+0  10639-3 0  9992", "line2": "2 39084  98.2055  68.1259 0001048  93.5566 266.5752 14.57115874672712"}}, "geometry": {"type": "Point", "coordinates": [75.88261968003823, -41.332398123332865]}}, {"type": "Feature", "properties": {"norad_id": 39086, "name": "SARAL", "group": "resource", "lat": 19.834020382880766, "lon": 7.584019276495034, "alt_km": 782.1159923302203, "timestamp": "2025-12-26T17:24:54.374812+00:00", "meta": {"OBJECT_NAME": "SARAL", "OBJECT_ID": "2013-009A", "EPOCH": "2025-12-26T06:36:56.111616", "MEAN_MOTION": 14.3276166, "ECCENTRICITY": 0.0002956, "INCLINATION": 98.5504, "RA_OF_ASC_NODE": 184.0294, "ARG_OF_PERICENTER": 83.225, "MEAN_ANOMALY": 276.9271, "EPHEMERIS_TYPE": 0, "CLASSIFICATION_TYPE": "U", "NORAD_CAT_ID": 39086, "ELEMENT_SET_NO": 999, "REV_AT_EPOCH": 67084, "BSTAR": 6.5496021e-05, "MEAN_MOTION_DOT": 1.35e-06, "MEAN_MOTION_DDOT": 0}, "tle": {"line1": "1 39086U 13009A   25360.27564944  .00000135  00000+0  65496-4 0  9998", "line2": "2 39086  98.5504 184.0294 0002956  83.2250 276.9271 14.32761660670844"}}, "geometry": {"type": "Point", "coordinates": [7.584019276495034, 19.834020382880766]}}, {"type": "Feature", "properties": {"norad_id": 39150, "name": "GAOFEN-1", "group": "resource", "lat": -23.252304729561242, "lon": 74.57014823395929, "alt_km": 653.1244978548957, "timestamp": "2025-12-26T17:24:54.374822+00:00", "meta": {"OBJECT_NAME": "GAOFEN-1", "OBJECT_ID": "2013-018A", "EPOCH": "2025-12-26T06:08:10.567968", "MEAN_MOTION": 14.76503966, "ECCENTRICITY": 0.00185618, "INCLINATION": 97.9307, "RA_OF_ASC_NODE": 70.6747, "ARG_OF_PERICENTER": 102.1132, "MEAN_ANOMALY": 258.2159, "EPHEMERIS_TYPE": 0, "CLASSIFICATION_TYPE": "U", "NORAD_CAT_ID": 39150, "ELEMENT_SET_NO": 999, "REV_AT_EPOCH": 68272, "BSTAR": 0.00014946539, "MEAN_MOTION_DOT": 9.93e-06, "MEAN_MOTION_DDOT": 0}, "tle": {"line1": "1 39150U 13018A   25360.25567787  .00000993  00000+0  14947-3 0  9992", "line2": "2 39150  97.9307  70.6747 0018561 102.1132 258.2159 14.76503966682721"}}, "geometry": {"type": "Point", "coordinates": [74.57014823395929, -23.252304729561242]}}, {"type": "Feature", "properties": {"norad_id": 39160, "name": "VNREDSAT 1", "group": "resource", "lat": 2.904047386731778, "lon": -124.08569448832772, "alt_km": 679.9447826927826, "timestamp": "2025-12-26T17:24:54.374832+00:00", "meta": {"OBJECT_NAME": "VNREDSAT 1", "OBJECT_ID": "2013-021B", "EPOCH": "2025-12-26T06:46:27.844608", "MEAN_MOTION": 14.64943236, "ECCENTRICITY": 0.00011706, "INCLINATION": 97.9351, "RA_OF_ASC_NODE": 55.0812, "ARG_OF_PERICENTER": 82.9902, "MEAN_ANOMALY": 277.1435, "EPHEMERIS_TYPE": 0, "CLASSIFICATION_TYPE": "U", "NORAD_CAT_ID": 39160, "ELEMENT_SET_NO": 999, "REV_AT_EPOCH": 67497, "BSTAR": 0.00018100471, "MEAN_MOTION_DOT": 9.23e-06, "MEAN_MOTION_DDOT": 0}, "tle": {"line1": "1 39160U 13021B   25360.28226672  .00000923  00000+0  18100-3 0  9993", "line2": "2 39160  97.9351  55.0812 0001170  82.9902 277.1435 14.64943236674979"}}, "geometry": {"type": "Point", "coordinates": [-124.08569448832772, 2.904047386731778]}}, {"type": "Feature", "properties": {"norad_id": 39227, "name": "ARIRANG-5 (KOMPSAT-5)", "group": "resource", "lat": 80.92632851901877, "lon": 127.91161675670773, "alt_km": 544.4103403081372, "timestamp": "2025-12-26T17:24:54.374843+00:00", "meta": {"OBJECT_NAME": "ARIRANG-5 (KOMPSAT-5)", "OBJECT_ID": "2013-042A", "EPOCH": "2025-12-26T07:27:40.644576", "MEAN_MOTION": 15.04488611, "ECCENTRICITY": 0.00029572, "INCLINATION": 97.6166, "RA_OF_ASC_NODE": 184.4222, "ARG_OF_PERICENTER": 33.737, "MEAN_ANOMALY": 326.4044, "EPHEMERIS_TYPE": 0, "CLASSIFICATION_TYPE": "U", "NORAD_CAT_ID": 39227, "ELEMENT_SET_NO": 999, "REV_AT_EPOCH": 67786, "BSTAR": 0.00016785534, "MEAN_MOTION_DOT": 2.288e-05, "MEAN_MOTION_DDOT": 0}, "tle": {"line1": "1 39227U 13042A   25360.31088709  .00002288  00000+0  16786-3 0  9995", "line2": "2 39227  97.6166 184.4222 0002957  33.7370 326.4044 15.04488611677864"}}, "geometry": {"type": "Point", "coordinates": [127.91161675670773, 80.92632851901877]}}, {"type": "Feature", "properties": {"norad_id": 39418, "name": "SKYSAT-A", "group": "resource", "lat": 80.16549946060029, "lon": -80.8476394176424, "alt_km": 523.6343161334262, "timestamp": "2025-12-26T17:24:54.374853+00:00", "meta": {"OBJECT_NAME": "SKYSAT-A", "OBJECT_ID": "2013-066C", "EPOCH": "2025-12-26T02:41:27.845376", "MEAN_MOTION": 15.11697781, "ECCENTRICITY": 0.00217389, "INCLINATION": 97.4086, "RA_OF_ASC_NODE": 49.9135, "ARG_OF_PERICENTER": 188.7352, "MEAN_ANOMALY": 171.3503, "EPHEMERIS_TYPE": 0, "CLASSIFICATION_TYPE": "U", "NORAD_CAT_ID": 39418, "ELEMENT_SET_NO": 999, "REV_AT_EPOCH": 66232, "BSTAR": 0.00020437937, "MEAN_MOTION_DOT": 3.435e-05, "MEAN_MOTION_DDOT": 0}, "tle": {"line1": "1 39418U 13066C   25360.11212784  .00003435  00000+0  20438-3 0  9997", "line2": "2 39418  97.4086  49.9135 0021738 188.7352 171.3503 15.11697781662322"}}, "geometry": {"type": "Point", "coordinates": [-80.8476394176424, 80.16549946060029]}}, {"type": "Feature", "properties": {"norad_id": 39419, "name": "DUBAISAT-2", "group": "resource", "lat": 74.55114350668364, "lon": -37.54455521462682, "alt_km": 540.3402225542523, "timestamp": "2025-12-26T17:24:54.374863+00:00", "meta": {"OBJECT_NAME": "DUBAISAT-2", "OBJECT_ID": "2013-066D", "EPOCH": "2025-12-26T05:55:59.405376", "MEAN_MOTION": 15.08490005, "ECCENTRICITY": 0.00097607, "INCLINATION": 97.4469, "RA_OF_ASC_NODE": 350.2396, "ARG_OF_PERICENTER": 268.6369, "MEAN_ANOMALY": 91.3742, "EPHEMERIS_TYPE": 0, "CLASSIFICATION_TYPE": "U", "NORAD_CAT_ID": 39419, "ELEMENT_SET_NO": 999, "REV_AT_EPOCH": 66030, "BSTAR": 0.00052385505, "MEAN_MOTION_DOT": 8.118e-05, "MEAN_MOTION_DDOT": 0}, "tle": {"line1": "1 39419U 13066D   25360.24721534  .00008118  00000+0  52386-3 0  9990", "line2": "2 39419  97.4469 350.2396 0009760 268.6369  91.3742 15.08490005660300"}}, "geometry": {"type": "Point", "coordinates": [-37.54455521462682, 74.55114350668364]}}, {"type": "Feature", "properties": {"norad_id": 39574, "name": "GPM-CORE", "group": "resource", "lat": -64.61334528579034, "lon": 85.93038772694987, "alt_km": 432.83636845513956, "timestamp": "2025-12-26T17:24:54.374874+00:00", "meta": {"OBJECT_NAME": "GPM-CORE", "OBJECT_ID": "2014-009C", "EPOCH": "2025-12-26T05:21:16.145856", "MEAN_MOTION": 15.44676375, "ECCENTRICITY": 0.0009044, "INCLINATION": 64.9729, "RA_OF_ASC_NODE": 167.5271, "ARG_OF_PERICENTER": 251.3471, "MEAN_ANOMALY": 108.6688, "EPHEMERIS_TYPE": 0, "CLASSIFICATION_TYPE": "U", "NORAD_CAT_ID": 39574, "ELEMENT_SET_NO": 999, "REV_AT_EPOCH": 67109, "BSTAR": 0.00019437588, "MEAN_MOTION_DOT": 8.882e-05, "MEAN_MOTION_DDOT": 0}, "tle": {"line1": "1 39574U 14009C   25360.22310354  .00008882  00000+0  19438-3 0  9991", "line2": "2 39574  64.9729 167.5271 0009044 251.3471 108.6688 15.44676375671094"}}, "geometry": {"type": "Point", "coordinates": [85.93038772694987, -64.61334528579034]}}]}